GLOBALSTAR M057         
1 25943U 99058A   24226.45459316 -.00000065  00000+0  25469-3 0  9997
2 25943  51.9975 141.5245 0002654  89.5593 270.5561 12.24791231129223
GLOBALSTAR M059         
1 25944U 99058B   24226.54607921 -.00000110  00000+0 -29477-3 0  9990
2 25944  52.0041 319.4341 0000744 100.8400 272.4962 11.99964599537112
GLOBALSTAR M056         
1 25945U 99058C   24226.61211286 -.00000045  00000+0  49447-3 0  9999
2 25945  51.9991 329.1116 0000294 228.7342 144.9524 12.04775213125556
GLOBALSTAR M031         
1 25946U 99058D   24226.34640392 -.00000010  00000+0  81206-3 0  9995
2 25946  51.9936 240.5932 0001413 269.0171 194.2814 12.16014351127093
GLOBALSTAR M039         
1 25961U 99062A   24226.46774360 -.00000069  00000+0  19506-3 0  9991
2 25961  51.9840 125.9511 0003339  30.8415 329.2647 12.62299447141358
GLOBALSTAR M034         
1 25962U 99062B   24226.55956927 -.00000061  00000+0  31219-3 0  9990
2 25962  51.9869  91.0321 0013572 177.6572 213.0317 11.79430940102090
GLOBALSTAR M029         
1 25963U 99062C   24226.20118275 -.00000048  00000+0  47840-3 0  9991
2 25963  51.9774 208.6653 0002515 235.8953 137.4909 11.99881746132157
GLOBALSTAR M061         
1 25964U 99062D   24226.37104029 -.00000043  00000+0  61776-3 0  9991
2 25964  51.9780 271.4799 0006183 108.8491 263.2899 11.76763534 84943
